STARLINK-30242          
1 57739U 23131H   23285.58334491 -.00641183  00000+0 -97769-2 0  9992
2 57739  42.9996 261.3019 0000915 203.9699 282.2769 15.55836887  5947
STARLINK-30331          
1 57740U 23131J   23285.45524750  .00009140  00000+0  47899-3 0  9998
2 57740  42.9994 270.2291 0001103 233.5518 126.5228 15.15968080  7654
STARLINK-30364          
1 57741U 23131K   23285.44613542  .00013516  00000+0  70195-3 0  9993
2 57741  42.9998 270.1605 0001079 238.9899 121.0842 15.15981677  7659
STARLINK-30308          
1 57742U 23131L   23282.23086082 -.00437046  00000+0 -27194-1 0  9990
2 57742  43.0003 287.3121 0000659 277.7173  82.3598 15.11160616  7184
STARLINK-30361          
1 57743U 23131M   23285.44158253  .00021302  00000+0  10983-2 0  9998
2 57743  42.9997 270.1270 0000555 243.0619 117.0172 15.15982453  7657
STARLINK-30363          
1 57744U 23131N   23285.30675791  .00006995  00000+0  36965-3 0  9995
2 57744  42.9975 268.2234 0000463 240.1921 119.8880 15.15949541  7662
STARLINK-30362          
1 57745U 23131P   23285.30525559  .00012245  00000+0  63728-3 0  9994
2 57745  42.9996 270.8237 0001141 204.2008 155.8786 15.15974989  7635
STARLINK-30350          
1 57746U 23131Q   23285.34383689  .00107939  00000+0  54473-2 0  9996
2 57746  42.9975 270.2506 0001244 219.2802 140.7955 15.16005510  7646
STARLINK-30307          
1 57747U 23131R   23285.43474393  .00061322  00000+0  31267-2 0  9991
2 57747  42.9996 270.0762 0001317 260.2396  99.8302 15.15929595  7655
STARLINK-30356          
1 57748U 23131S   23285.23481035  .00000502  00000+0  37591-4 0  9992
2 57748  42.9999 271.1544 0001127 244.2319 115.8412 15.15951471  7621
STARLINK-30366          
1 57749U 23131T   23285.41198247  .00058703  00000+0  29879-2 0  9997
2 57749  42.9984 269.9011 0000957 258.7316 101.3424 15.16010122  7653
STARLINK-30357          
1 57750U 23131U   23285.35520737  .00006091  00000+0  32332-3 0  9997
2 57750  42.9960 270.3347 0000746 201.7677 158.3139 15.15967100  7641
STARLINK-30370          
1 57751U 23131V   23285.58334491 -.00629643  00000+0 -26263-1 0  9993
2 57751  43.0002 266.6321 0001601 288.8626 181.0130 15.25391815  5841
STARLINK-30368          
1 57752U 23131W   23285.58334491 -.01099937  00000+0 -81986-1 0  9995
2 57752  42.9994 268.6404 0002028 273.8106  61.8390 15.05284126  5998
STARLINK-30343          
1 57753U 23131X   23285.42334277  .00005452  00000+0  29048-3 0  9990
2 57753  43.0010 269.9876 0000578 230.7347 129.3449 15.15988804  7659
STARLINK-30397          
1 57771U 23134A   23285.46139212  .00002150  00000+0  12183-3 0  9993
2 57771  43.0014 297.4412 0000908 261.6118  98.4626 15.15979612  7189
STARLINK-30354          
1 57772U 23134B   23285.47948743 -.00006181  00000+0 -30473-3 0  9994
2 57772  43.0014 296.7136 0000745 260.5287  99.5476 15.15966926  7199
STARLINK-30383          
1 57773U 23134C   23285.52043974  .00002807  00000+0  15537-3 0  9996
2 57773  43.0005 297.0241 0000923 194.5738 165.5082 15.15990149  7197
STARLINK-30384          
1 57774U 23134D   23285.45001296  .00001057  00000+0  65926-4 0  9994
2 57774  42.9999 297.3560 0000538 161.1866 198.9001 15.15979988  7187
STARLINK-30305          
1 57775U 23134E   23285.51815738  .00002918  00000+0  16100-3 0  9992
2 57775  43.0012 297.0082 0000588 261.3449  98.7332 15.15992712  7192
STARLINK-30360          
1 57776U 23134F   23285.44771630  .00000499  00000+0  37442-4 0  9992
2 57776  43.0060 297.3371 0002206 263.9457  96.1139 15.15970945  7186
STARLINK-30355          
1 57777U 23134G   23285.58334491 -.02123767  00000+0 -13925+0 0  9991
2 57777  42.9994 294.7944 0001617 282.3437 125.6153 15.10507216  6068
STARLINK-30385          
1 57778U 23134H   23285.58334491  .00059458  00000+0  30319-2 0  9992
2 57778  42.9994 291.9038 0001560 262.0470 249.1088 15.15939580  6057
STARLINK-30359          
1 57779U 23134J   23285.58334491 -.00054601  00000+0 -28002-2 0  9996
2 57779  42.9987 292.4276 0001713 284.3786  15.2676 15.16006910  5986
STARLINK-30380          
1 57780U 23134K   23285.40448159  .00001917  00000+0  10995-3 0  9999
2 57780  43.0007 297.0096 0000837 245.0111 115.0649 15.15968902  7186
STARLINK-30369          
1 57781U 23134L   23285.52473126  .00009932  00000+0  51914-3 0  9996
2 57781  43.0006 295.3381 0001269 303.5379  56.5347 15.15988619  7215
STARLINK-30376          
1 57782U 23134M   23285.43181092  .00002778  00000+0  15400-3 0  9996
2 57782  42.9978 297.2212 0000710  70.2054 289.8870 15.15962541  7188
STARLINK-30389          
1 57783U 23134N   23285.49994318  .00003864  00000+0  20935-3 0  9992
2 57783  43.0023 296.8704 0001167 258.3964 101.6752 15.15995980  7193
STARLINK-30388          
1 57784U 23134P   23285.42952730 -.00000098  00000+0  68527-5 0  9996
2 57784  42.9995 297.2035 0000459 150.8422 209.2451 15.15967664  7188
STARLINK-30381          
1 57785U 23134Q   23285.34285350  .00001916  00000+0  10984-3 0  9996
2 57785  43.0006 295.6300 0000601 274.4680  85.6099 15.15978793  7199
STARLINK-30382          
1 57786U 23134R   23285.42724400  .00002977  00000+0  16412-3 0  9990
2 57786  43.0009 297.1837 0000352 263.6384  96.4423 15.15972088  7180
STARLINK-30378          
1 57787U 23134S   23285.47262988  .00003217  00000+0  17629-3 0  9993
2 57787  43.0000 296.6621 0000566 278.5323  81.5460 15.15990989  7199
STARLINK-30387          
1 57788U 23134T   23285.58334491  .00057083  00000+0  29134-2 0  9998
2 57788  42.9984 292.4565 0001705 266.6409  20.5863 15.15925489  5987
STARLINK-30372          
1 57789U 23134U   23285.42269440  .00003111  00000+0  17099-3 0  9994
2 57789  42.9977 297.1475 0000506 260.6153  99.4638 15.15973147  7183
STARLINK-30373          
1 57790U 23134V   23285.37930205  .00001101  00000+0  68177-4 0  9995
2 57790  42.9998 295.9582 0001176 252.5647 107.5071 15.15981408  7197
STARLINK-30367          
1 57791U 23134W   23285.41585737  .00003764  00000+0  20430-3 0  9993
2 57791  43.0010 297.0939 0000546 246.8075 113.2715 15.15984571  7187
STARLINK-30304          
1 57808U 23138A   23285.58334491  .00019375  00000+0  10020-2 0  9991
2 57808  42.9997 334.2130 0001351 295.7179 299.2589 15.15921849  6089
STARLINK-30374          
1 57809U 23138B   23285.58334491  .00044684  00000+0  22861-2 0  9999
2 57809  42.9994 334.1833 0001265 276.1575 331.1931 15.15941296  6011
STARLINK-30394          
1 57810U 23138C   23285.58334491  .00028696  00000+0  14755-2 0  9999
2 57810  42.9993 334.1532 0001532 285.0902 334.7470 15.15944066  6013
STARLINK-30379          
1 57811U 23138D   23285.58334491  .00044606  00000+0  22837-2 0  9999
2 57811  42.9991 334.1235 0001543 262.3901   9.8725 15.15917279  5996
STARLINK-30395          
1 57812U 23138E   23285.58334491  .00056485  00000+0  28820-2 0  9996
2 57812  42.9990 334.0936 0001029 282.2842   2.4391 15.15941248  6089
STARLINK-30403          
1 57813U 23138F   23285.58334491  .00087257  00000+0  44308-2 0  9997
2 57813  42.9989 334.0641 0001507 267.0932  30.0382 15.15907871  5892
STARLINK-30413          
1 57814U 23138G   23285.58334491  .00091384  00000+0  46360-2 0  9994
2 57814  42.9989 334.0334 0001219 274.1004  35.4615 15.15916632  5995
STARLINK-30398          
1 57815U 23138H   23285.58334491  .00076824  00000+0  39087-2 0  9995
2 57815  42.9989 334.0043 0000878 262.3232  59.6757 15.15902854  6082
STARLINK-30386          
1 57816U 23138J   23285.58334491  .00097500  00000+0  49412-2 0  9993
2 57816  42.9988 333.9754 0001033 288.0124  46.4326 15.15917268  6001
STARLINK-30391          
1 57817U 23138K   23285.58334491  .00091960  00000+0  46681-2 0  9993
2 57817  42.9988 333.9443 0001356 271.9766  74.9931 15.15891693  5996
STARLINK-30401          
1 57818U 23138L   23285.58334491 -.00003696  00000+0 -17736-3 0  9995
2 57818  42.9988 333.9149 0001105 266.4314  92.9595 15.15970075  6089
STARLINK-30390          
1 57819U 23138M   23285.58334491  .00096273  00000+0  48832-2 0  9997
2 57819  42.9989 333.8856 0001874 303.6478  68.0942 15.15893826  6081
STARLINK-30409          
1 57820U 23138N   23285.58334491 -.02065404  00000+0 -12209+0 0  9991
2 57820  42.9990 332.9556 0001591 279.3768 115.6752 15.14681135  6017
STARLINK-30415          
1 57821U 23138P   23285.58334491  .00066125  00000+0  33655-2 0  9990
2 57821  42.9991 333.8260 0001017 305.8447  90.7910 15.15959902  6080
STARLINK-30417          
1 57822U 23138Q   23285.58334491  .00073260  00000+0  37264-2 0  9999
2 57822  42.9991 333.7973 0001885 284.3627 124.7205 15.15933751  5993
STARLINK-30407          
1 57823U 23138R   23285.58334491  .00126758  00000+0  63897-2 0  9992
2 57823  43.0004 333.5603 0001470 257.5692 250.8951 15.15942605  5877
STARLINK-30408          
1 57824U 23138S   23285.58334491  .00112633  00000+0  56888-2 0  9992
2 57824  42.9995 333.7383 0000545 265.2524 168.6956 15.15950812  6088
STARLINK-30377          
1 57825U 23138T   23285.58334491 -.02066146  00000+0 -11953+0 0  9995
2 57825  42.9989 332.9492 0001622 286.9894 116.8691 15.15435795  5944
STARLINK-30422          
1 57826U 23138U   23285.58334491  .00083789  00000+0  42528-2 0  9999
2 57826  43.0001 333.6480 0001809 265.2975 205.9773 15.15944344  6008
STARLINK-30402          
1 57827U 23138V   23285.58334491  .00109121  00000+0  55131-2 0  9993
2 57827  42.9998 333.6772 0002071 264.9002 193.8114 15.15959321  6088
STARLINK-30411          
1 57828U 23138W   23285.58334491 -.00610867  00000+0 -31819-1 0  9996
2 57828  42.9991 332.7560 0001478 275.3697 203.3548 15.17814270  6019
STARLINK-30418          
1 57829U 23138X   23285.58334491  .00136674  00000+0  68787-2 0  9999
2 57829  43.0005 333.5882 0001810 275.8309 220.2534 15.15944529  5931
STARLINK-30285          
1 57840U 23141A   23285.58334491 -.02143358  00000+0 -70253-1 0  9997
2 57840  53.0551  35.0529 0001497  82.0570  26.8009 15.34534237  6011
